SAR-LUPE 2              
1 31797U 07030A   26195.61806647  .00026127  00000+0  41052-3 0  9990
2 31797  98.1064 303.5420 0004746 204.7283 155.3742 15.53623762 61195
SAPPHIRE                
1 39088U 13009C   26195.55977574  .00000036  00000+0  27651-4 0  9996
2 39088  98.4273  14.3673 0011546 161.7485 198.4117 14.35247471700507
PRAETORIAN SDA_602      
1 65565U 25203A   26195.56765924  .00000015  00000+0  27323-5 0  9993
2 65565  81.3043 345.4168 0007047 119.0468 241.1396 13.83887801 42487
PRAETORIAN SDA_603      
1 65566U 25203B   26195.52368197  .00000122  00000+0  98743-4 0  9993
2 65566  81.3046 345.3791 0010789 116.5660 243.6604 13.83962446 42483
PRAETORIAN SDA_604      
1 65567U 25203C   26195.56080533  .00000016  00000+0  35435-5 0  9995
2 65567  81.3065 345.7997 0006554 122.8309 237.3479 13.83049983 42462
PRAETORIAN SDA_605      
1 65568U 25203D   26195.52056303  .00000021  00000+0  83309-5 0  9999
2 65568  81.3030 345.4780 0009303 114.8739 245.3385 13.83199927 42475
PRAETORIAN SDA_606      
1 65569U 25203E   26195.50573670  .00000021  00000+0  83077-5 0  9991
2 65569  81.3066 345.7295 0007158 117.6687 242.5196 13.83200051 42467
PRAETORIAN SDA_607      
1 65570U 25203F   26195.49637290  .00000144  00000+0  11975-3 0  9992
2 65570  81.3049 345.3589 0009873 116.0316 244.1859 13.83758349 42484
PRAETORIAN SDA_608      
1 65571U 25203G   26195.55123145  .00000023  00000+0  99990-5 0  9990
2 65571  81.3019 345.4722 0007041 121.7577 238.4266 13.83819354 42470
PRAETORIAN SDA_609      
1 65572U 25203H   26195.54839219  .00000136  00000+0  11091-3 0  9995
2 65572  81.3062 345.4532 0007867 116.3499 243.8466 13.84211119 42486
PRAETORIAN SDA_610      
1 65573U 25203J   26195.53299340  .00000043  00000+0  28389-4 0  9996
2 65573  81.3021 345.4517 0007772 121.3297 238.8621 13.83528095 42471
PRAETORIAN SDA_611      
1 65574U 25203K   26195.46947067  .00000219  00000+0  18834-3 0  9993
2 65574  81.3022 345.6926 0006619 125.2786 234.8991 13.83311467 42451
PRAETORIAN SDA_612      
1 65575U 25203L   26195.49728182  .00000085  00000+0  64171-4 0  9999
2 65575  81.3040 345.1868 0010254 116.1588 244.0625 13.85040789 42490
PRAETORIAN SDA_613      
1 65576U 25203M   26195.55929458  .00000025  00000+0  12271-4 0  9994
2 65576  81.3012 345.6282 0006760 116.3063 243.8788 13.82767597 42466
PRAETORIAN SDA_614      
1 65577U 25203N   26195.56387019  .00000013  00000+0  56392-6 0  9998
2 65577  81.3026 345.2093 0008205 114.7159 245.4853 13.84778493 42507
PRAETORIAN SDA_615      
1 65578U 25203P   26195.54749301  .00000164  00000+0  13578-3 0  9996
2 65578  81.3036 345.2059 0010123 115.3090 244.9117 13.84438499 42498
PRAETORIAN SDA_616      
1 65579U 25203Q   26195.46949725  .00000152  00000+0  12732-3 0  9998
2 65579  81.3075 345.8570 0006509 123.6647 236.5131 13.83270407 42450
PRAETORIAN SDA_617      
1 65580U 25203R   26195.49343016  .00000030  00000+0  16660-4 0  9994
2 65580  81.3049 345.6630 0008468 115.3086 244.8948 13.83152097 42462
PRAETORIAN SDA_618      
1 65581U 25203S   26195.51473952  .00000116  00000+0  92869-4 0  9991
2 65581  81.3031 345.1676 0010922 118.5632 241.6625 13.84226379 42495
PRAETORIAN SDA_619      
1 65582U 25203T   26195.48963908  .00000116  00000+0  93815-4 0  9995
2 65582  81.3057 345.5193 0009245 116.0210 244.1900 13.83805764 43106
PRAETORIAN SDA_620      
1 65583U 25203U   26195.52443273  .00000114  00000+0  93424-4 0  9993
2 65583  81.3042 345.5180 0008650 113.4506 246.7560 13.83207975 42474
PRAETORIAN SDA_621      
1 65584U 25203V   26195.49147566  .00000011  00000+0 -91910-6 0  9993
2 65584  81.3033 345.4494 0008480 110.5381 249.6686 13.83803685 42473
PRAETORIAN SDA_601      
1 65585U 25203W   26195.54694251  .00000029  00000+0  15374-4 0  9994
2 65585  81.3053 345.7253 0006586 126.2989 233.8776 13.83170320 42462
VICTUS HAZE PUMA        
1 69646U 26142A   26194.66617709  .00002127  00000+0  98816-4 0  9997
2 69646  97.4471  91.9874 0025032 271.5686  88.2682 15.20841534  3695
